start=new Date('2023-01-22T00:00:00.000Z').valueOf();
sats=[{"PERIOD":"95.592","ARG_OF_PERICENTER":"78.9423","NORAD_CAT_ID":"45194","ELEMENT_SET_NO":"999","SITE":"AFETR","REV_AT_EPOCH":"16159","EPOCH":"2023-01-21T11:19:56.255232","TLE_LINE1":"1 45194U 20012S   23021.47217888  .00011350  00000-0  77941-3 0  9992","MEAN_MOTION_DOT":"0.00011350","DECAY_DATE":null,"INCLINATION":"53.0535","RCS_SIZE":"LARGE","BSTAR":"0.00077941000000","MEAN_MOTION":"15.06409861","MEAN_MOTION_DDOT":"0.0000000000000","OBJECT_NAME":"STARLINK-1240","TIME_SYSTEM":"UTC","RA_OF_ASC_NODE":"138.7204","PERIAPSIS":"546.417","CLASSIFICATION_TYPE":"U","TLE_LINE2":"2 45194  53.0535 138.7204 0001107  78.9423 281.1691 15.06409861161593","OBJECT_ID":"2020-012S","MEAN_ANOMALY":"281.1691","SEMIMAJOR_AXIS":"6925.318","FILE":"3756961","ECCENTRICITY":"0.00011070","GP_ID":"223573231","COUNTRY_CODE":"US","MEAN_ELEMENT_THEORY":"SGP4","CENTER_NAME":"EARTH","EPHEMERIS_TYPE":"0","APOAPSIS":"547.950","LAUNCH_DATE":"2020-02-17","REF_FRAME":"TEME","OBJECT_TYPE":"PAYLOAD"},{"EPOCH":"2023-01-21T13:45:30.863232","SITE":"AFETR","REV_AT_EPOCH":"16180","ARG_OF_PERICENTER":"49.1818","PERIOD":"94.600","NORAD_CAT_ID":"45195","ELEMENT_SET_NO":"999","BSTAR":"0.00261890000000","MEAN_MOTION":"15.22199463","TIME_SYSTEM":"UTC","RA_OF_ASC_NODE":"123.9693","PERIAPSIS":"498.785","MEAN_MOTION_DDOT":"0.0000000000000","OBJECT_NAME":"STARLINK-1241","TLE_LINE1":"1 45195U 20012T   23021.57327388  .00061099  00000-0  26189-2 0  9993","INCLINATION":"53.0515","RCS_SIZE":"LARGE","MEAN_MOTION_DOT":"0.00061099","DECAY_DATE":null,"FILE":"3757180","ECCENTRICITY":"0.00006180","CLASSIFICATION_TYPE":"U","SEMIMAJOR_AXIS":"6877.345","TLE_LINE2":"2 45195  53.0515 123.9693 0000618  49.1818 310.9232 15.22199463161802","MEAN_ANOMALY":"310.9232","OBJECT_ID":"2020-012T","APOAPSIS":"499.635","REF_FRAME":"TEME","LAUNCH_DATE":"2020-02-17","MEAN_ELEMENT_THEORY":"SGP4","CENTER_NAME":"EARTH","EPHEMERIS_TYPE":"0","OBJECT_TYPE":"PAYLOAD","GP_ID":"223578419","COUNTRY_CODE":"US"},{"TLE_LINE1":"1 45196U 20012U   23021.58644434  .00003547  00000-0  25688-3 0  9997","RCS_SIZE":"LARGE","INCLINATION":"53.0543","DECAY_DATE":null,"MEAN_MOTION_DOT":"0.00003547","BSTAR":"0.00025688000000","MEAN_MOTION":"15.06403903","PERIAPSIS":"546.179","TIME_SYSTEM":"UTC","RA_OF_ASC_NODE":"138.2204","OBJECT_NAME":"STARLINK-1244","MEAN_MOTION_DDOT":"0.0000000000000","ARG_OF_PERICENTER":"101.7474","PERIOD":"95.592","NORAD_CAT_ID":"45196","ELEMENT_SET_NO":"999","EPOCH":"2023-01-21T14:04:28.790976","REV_AT_EPOCH":"16164","SITE":"AFETR","COUNTRY_CODE":"US","GP_ID":"223580227","LAUNCH_DATE":"2020-02-17","REF_FRAME":"TEME","APOAPSIS":"548.224","EPHEMERIS_TYPE":"0","CENTER_NAME":"EARTH","MEAN_ELEMENT_THEORY":"SGP4","OBJECT_TYPE":"PAYLOAD","CLASSIFICATION_TYPE":"U","SEMIMAJOR_AXIS":"6925.337","MEAN_ANOMALY":"258.3681","OBJECT_ID":"2020-012U","TLE_LINE2":"2 45196  53.0543 138.2204 0001477 101.7474 258.3681 15.06403903161642","FILE":"3757272","ECCENTRICITY":"0.00014770"},{"GP_ID":"223563285","COUNTRY_CODE":"US","OBJECT_TYPE":"PAYLOAD","LAUNCH_DATE":"2020-02-17","REF_FRAME":"TEME","APOAPSIS":"548.056","EPHEMERIS_TYPE":"0","CENTER_NAME":"EARTH","MEAN_ELEMENT_THEORY":"SGP4","SEMIMAJOR_AXIS":"6925.333","MEAN_ANOMALY":"264.0124","OBJECT_ID":"2020-012V","TLE_LINE2":"2 45197  53.0516 140.3466 0001239  96.1006 264.0124 15.06404941161561","CLASSIFICATION_TYPE":"U","ECCENTRICITY":"0.00012390","FILE":"3756553","RCS_SIZE":"LARGE","INCLINATION":"53.0516","DECAY_DATE":null,"MEAN_MOTION_DOT":"0.00004538","TLE_LINE1":"1 45197U 20012V   23021.11095702  .00004538  00000-0  32330-3 0  9998","PERIAPSIS":"546.340","RA_OF_ASC_NODE":"140.3466","TIME_SYSTEM":"UTC","OBJECT_NAME":"STARLINK-1269","MEAN_MOTION_DDOT":"0.0000000000000","BSTAR":"0.00032330000000","MEAN_MOTION":"15.06404941","ELEMENT_SET_NO":"999","NORAD_CAT_ID":"45197","ARG_OF_PERICENTER":"96.1006","PERIOD":"95.592","EPOCH":"2023-01-21T02:39:46.686528","REV_AT_EPOCH":"16156","SITE":"AFETR"},{"COUNTRY_CODE":"US","GP_ID":"223579124","OBJECT_TYPE":"PAYLOAD","EPHEMERIS_TYPE":"0","CENTER_NAME":"EARTH","MEAN_ELEMENT_THEORY":"SGP4","REF_FRAME":"TEME","LAUNCH_DATE":"2020-02-17","APOAPSIS":"547.979","OBJECT_ID":"2020-012W","MEAN_ANOMALY":"270.5671","TLE_LINE2":"2 45198  53.0524 118.0128 0001140  89.5448 270.5671 15.06408001161891","SEMIMAJOR_AXIS":"6925.324","CLASSIFICATION_TYPE":"U","ECCENTRICITY":"0.00011400","FILE":"3757208","DECAY_DATE":null,"MEAN_MOTION_DOT":"0.00003642","RCS_SIZE":"LARGE","INCLINATION":"53.0524","TLE_LINE1":"1 45198U 20012W   23021.63251282  .00003642  00000-0  26322-3 0  9992","OBJECT_NAME":"STARLINK-1154","MEAN_MOTION_DDOT":"0.0000000000000","PERIAPSIS":"546.400","TIME_SYSTEM":"UTC","RA_OF_ASC_NODE":"118.0128","BSTAR":"0.00026322000000","MEAN_MOTION":"15.06408001","NORAD_CAT_ID":"45198","ELEMENT_SET_NO":"999","PERIOD":"95.592","ARG_OF_PERICENTER":"89.5448","REV_AT_EPOCH":"16189","SITE":"AFETR","EPOCH":"2023-01-21T15:10:49.107648"},{"COUNTRY_CODE":"US","GP_ID":"223578354","OBJECT_TYPE":"PAYLOAD","REF_FRAME":"TEME","LAUNCH_DATE":"2020-02-17","APOAPSIS":"548.167","EPHEMERIS_TYPE":"0","CENTER_NAME":"EARTH","MEAN_ELEMENT_THEORY":"SGP4","SEMIMAJOR_AXIS":"6925.347","OBJECT_ID":"2020-012X","MEAN_ANOMALY":"263.0630","TLE_LINE2":"2 45199  53.0522 117.9963 0001380  97.0516 263.0630 15.06400598161896","CLASSIFICATION_TYPE":"U","ECCENTRICITY":"0.00013800","FILE":"3757176","RCS_SIZE":"LARGE","INCLINATION":"53.0522","DECAY_DATE":null,"MEAN_MOTION_DOT":"0.00001880","TLE_LINE1":"1 45199U 20012X   23021.63620650  .00001880  00000-0  14509-3 0  9998","PERIAPSIS":"546.256","RA_OF_ASC_NODE":"117.9963","TIME_SYSTEM":"UTC","OBJECT_NAME":"STARLINK-1197","MEAN_MOTION_DDOT":"0.0000000000000","BSTAR":"0.00014509000000","MEAN_MOTION":"15.06400598","NORAD_CAT_ID":"45199","ELEMENT_SET_NO":"999","ARG_OF_PERICENTER":"97.0516","PERIOD":"95.592","EPOCH":"2023-01-21T15:16:08.241600","REV_AT_EPOCH":"16189","SITE":"AFETR"},{"TIME_SYSTEM":"UTC","RA_OF_ASC_NODE":"118.8576","PERIAPSIS":"546.238","MEAN_MOTION_DDOT":"0.0000000000000","OBJECT_NAME":"STARLINK-1199","BSTAR":"0.00007147300000","MEAN_MOTION":"15.06395779","INCLINATION":"53.0563","RCS_SIZE":"LARGE","MEAN_MOTION_DOT":"0.00000783","DECAY_DATE":null,"TLE_LINE1":"1 45201U 20012Z   23021.44453724  .00000783  00000-0  71473-4 0  9992","EPOCH":"2023-01-21T10:40:08.017536","SITE":"AFETR","REV_AT_EPOCH":"16186","NORAD_CAT_ID":"45201","ELEMENT_SET_NO":"999","ARG_OF_PERICENTER":"104.1215","PERIOD":"95.592","OBJECT_TYPE":"PAYLOAD","APOAPSIS":"548.215","LAUNCH_DATE":"2020-02-17","REF_FRAME":"TEME","MEAN_ELEMENT_THEORY":"SGP4","EPHEMERIS_TYPE":"0","CENTER_NAME":"EARTH","COUNTRY_CODE":"US","GP_ID":"223572700","ECCENTRICITY":"0.00014280","FILE":"3756957","SEMIMAJOR_AXIS":"6925.361","TLE_LINE2":"2 45201  53.0563 118.8576 0001428 104.1215 255.9933 15.06395779161861","OBJECT_ID":"2020-012Z","MEAN_ANOMALY":"255.9933","CLASSIFICATION_TYPE":"U"},{"EPHEMERIS_TYPE":"0","CENTER_NAME":"EARTH","MEAN_ELEMENT_THEORY":"SGP4","LAUNCH_DATE":"2020-02-17","REF_FRAME":"TEME","APOAPSIS":"468.906","OBJECT_TYPE":"PAYLOAD","GP_ID":"223572696","COUNTRY_CODE":"US","FILE":"3756957","ECCENTRICITY":"0.00022720","CLASSIFICATION_TYPE":"U","MEAN_ANOMALY":"317.0289","OBJECT_ID":"2020-012AA","TLE_LINE2":"2 45202  52.9627  99.7144 0002272  43.0888 317.0289 15.32838251162089","SEMIMAJOR_AXIS":"6845.486","BSTAR":"0.00382700000000","MEAN_MOTION":"15.32838251","OBJECT_NAME":"STARLINK-1203","MEAN_MOTION_DDOT":"0.0000000000000","PERIAPSIS":"465.796","RA_OF_ASC_NODE":"99.7144","TIME_SYSTEM":"UTC","TLE_LINE1":"1 45202U 20012AA  23021.49777501  .00124791  00000-0  38270-2 0  9992","DECAY_DATE":null,"MEAN_MOTION_DOT":"0.00124791","RCS_SIZE":"LARGE","INCLINATION":"52.9627","REV_AT_EPOCH":"16208","SITE":"AFETR","EPOCH":"2023-01-21T11:56:47.760864","PERIOD":"93.943","ARG_OF_PERICENTER":"43.0888","NORAD_CAT_ID":"45202","ELEMENT_SET_NO":"999"},{"CLASSIFICATION_TYPE":"U","OBJECT_ID":"2020-012AC","MEAN_ANOMALY":"242.1891","TLE_LINE2":"2 45204  53.0541 118.7373 0001257 117.9225 242.1891 15.06413237161879","SEMIMAJOR_AXIS":"6925.308","FILE":"3756957","ECCENTRICITY":"0.00012570","GP_ID":"223572695","COUNTRY_CODE":"US","CENTER_NAME":"EARTH","EPHEMERIS_TYPE":"0","MEAN_ELEMENT_THEORY":"SGP4","REF_FRAME":"TEME","LAUNCH_DATE":"2020-02-17","APOAPSIS":"548.043","OBJECT_TYPE":"PAYLOAD","PERIOD":"95.591","ARG_OF_PERICENTER":"117.9225","ELEMENT_SET_NO":"999","NORAD_CAT_ID":"45204","REV_AT_EPOCH":"16187","SITE":"AFETR","EPOCH":"2023-01-21T11:17:17.273184","TLE_LINE1":"1 45204U 20012AC  23021.47033881  .00023513  00000-0  15916-2 0  9990","DECAY_DATE":null,"MEAN_MOTION_DOT":"0.00023513","RCS_SIZE":"LARGE","INCLINATION":"53.0541","BSTAR":"0.00159160000000","MEAN_MOTION":"15.06413237","OBJECT_NAME":"STARLINK-1206","MEAN_MOTION_DDOT":"0.0000000000000","PERIAPSIS":"546.302","TIME_SYSTEM":"UTC","RA_OF_ASC_NODE":"118.7373"},{"GP_ID":"223573174","COUNTRY_CODE":"US","OBJECT_TYPE":"PAYLOAD","EPHEMERIS_TYPE":"0","CENTER_NAME":"EARTH","MEAN_ELEMENT_THEORY":"SGP4","REF_FRAME":"TEME","LAUNCH_DATE":"2020-02-17","APOAPSIS":"548.049","OBJECT_ID":"2020-012AD","MEAN_ANOMALY":"261.8141","TLE_LINE2":"2 45205  53.0543 118.9256 0001204  98.2985 261.8141 15.06399376161873","SEMIMAJOR_AXIS":"6925.350","CLASSIFICATION_TYPE":"U","ECCENTRICITY":"0.00012040","FILE":"3756957","DECAY_DATE":null,"MEAN_MOTION_DOT":"0.00001461","RCS_SIZE":"LARGE","INCLINATION":"53.0543","TLE_LINE1":"1 45205U 20012AD  23021.42610712  .00001461  00000-0  11693-3 0  9997","OBJECT_NAME":"STARLINK-1208","MEAN_MOTION_DDOT":"0.0000000000000","PERIAPSIS":"546.382","TIME_SYSTEM":"UTC","RA_OF_ASC_NODE":"118.9256","BSTAR":"0.00011693000000","MEAN_MOTION":"15.06399376","NORAD_CAT_ID":"45205","ELEMENT_SET_NO":"999","PERIOD":"95.592","ARG_OF_PERICENTER":"98.2985","REV_AT_EPOCH":"16187","SITE":"AFETR","EPOCH":"2023-01-21T10:13:35.655168"}];
